start=new Date('2022-03-08T00:00:00.000Z').valueOf();
sats=[{"PERIAPSIS":"546.327","REV_AT_EPOCH":"10500","DECAY_DATE":null,"NORAD_CAT_ID":"45560","OBJECT_ID":"2020-025AF","MEAN_MOTION_DOT":"-0.00000662","LAUNCH_DATE":"2020-04-22","REF_FRAME":"TEME","SEMIMAJOR_AXIS":"6925.380","ELEMENT_SET_NO":"999","MEAN_MOTION":"15.06389742","SITE":"AFETR","TIME_SYSTEM":"UTC","APOAPSIS":"548.163","ECCENTRICITY":"0.00013260","EPOCH":"2022-03-07T16:36:32.993856","TLE_LINE1":"1 45560U 20025AF  22066.69204854 -.00000662  00000-0 -25548-4 0  9997","COUNTRY_CODE":"US","GP_ID":"198187202","CLASSIFICATION_TYPE":"U","MEAN_ELEMENT_THEORY":"SGP4","CENTER_NAME":"EARTH","INCLINATION":"53.0551","OBJECT_NAME":"STARLINK-1346","EPHEMERIS_TYPE":"0","RCS_SIZE":"LARGE","BSTAR":"-0.00002554800000","TLE_LINE2":"2 45560  53.0551 164.2785 0001326  66.7304 293.3825 15.06389742105005","PERIOD":"95.593","MEAN_ANOMALY":"293.3825","ARG_OF_PERICENTER":"66.7304","RA_OF_ASC_NODE":"164.2785","OBJECT_TYPE":"PAYLOAD","MEAN_MOTION_DDOT":"0.0000000000000","FILE":"3349821"},{"OBJECT_NAME":"STARLINK-1348","INCLINATION":"53.0579","MEAN_ELEMENT_THEORY":"SGP4","CENTER_NAME":"EARTH","CLASSIFICATION_TYPE":"U","TLE_LINE2":"2 45561  53.0579  86.9759 0001586  46.5656 313.5466 15.09660458106096","BSTAR":"0.00077818000000","RCS_SIZE":"LARGE","EPHEMERIS_TYPE":"0","ARG_OF_PERICENTER":"46.5656","MEAN_ANOMALY":"313.5466","PERIOD":"95.386","FILE":"3349821","MEAN_MOTION_DDOT":"0.0000000000000","RA_OF_ASC_NODE":"86.9759","OBJECT_TYPE":"PAYLOAD","NORAD_CAT_ID":"45561","DECAY_DATE":null,"PERIAPSIS":"536.142","REV_AT_EPOCH":"10609","SITE":"AFETR","ELEMENT_SET_NO":"999","MEAN_MOTION":"15.09660458","REF_FRAME":"TEME","SEMIMAJOR_AXIS":"6915.374","LAUNCH_DATE":"2020-04-22","OBJECT_ID":"2020-025AG","MEAN_MOTION_DOT":"0.00012400","APOAPSIS":"538.335","TIME_SYSTEM":"UTC","COUNTRY_CODE":"US","TLE_LINE1":"1 45561U 20025AG  22066.74985451  .00012400  00000-0  77818-3 0  9990","GP_ID":"198185950","EPOCH":"2022-03-07T17:59:47.429664","ECCENTRICITY":"0.00015860"},{"APOAPSIS":"548.382","TIME_SYSTEM":"UTC","ECCENTRICITY":"0.00016470","EPOCH":"2022-03-07T17:07:03.725184","TLE_LINE1":"1 45562U 20025AH  22066.71323756 -.00000508  00000-0 -15235-4 0  9996","GP_ID":"198185701","COUNTRY_CODE":"US","PERIAPSIS":"546.101","REV_AT_EPOCH":"10486","NORAD_CAT_ID":"45562","DECAY_DATE":null,"OBJECT_ID":"2020-025AH","MEAN_MOTION_DOT":"-0.00000508","ELEMENT_SET_NO":"999","MEAN_MOTION":"15.06390979","SITE":"AFETR","LAUNCH_DATE":"2020-04-22","SEMIMAJOR_AXIS":"6925.376","REF_FRAME":"TEME","ARG_OF_PERICENTER":"64.4172","PERIOD":"95.593","MEAN_ANOMALY":"295.6987","MEAN_MOTION_DDOT":"0.0000000000000","OBJECT_TYPE":"PAYLOAD","RA_OF_ASC_NODE":"174.1699","FILE":"3349821","CLASSIFICATION_TYPE":"U","MEAN_ELEMENT_THEORY":"SGP4","CENTER_NAME":"EARTH","OBJECT_NAME":"STARLINK-1354","INCLINATION":"53.0543","BSTAR":"-0.00001523500000","EPHEMERIS_TYPE":"0","RCS_SIZE":"LARGE","TLE_LINE2":"2 45562  53.0543 174.1699 0001647  64.4172 295.6987 15.06390979104867"},{"TLE_LINE1":"1 45563U 20025AJ  22066.59528912 -.00007184  00000-0 -46388-3 0  9993","GP_ID":"198186952","COUNTRY_CODE":"US","ECCENTRICITY":"0.00013850","EPOCH":"2022-03-07T14:17:12.979968","APOAPSIS":"548.172","TIME_SYSTEM":"UTC","MEAN_MOTION":"15.06400183","ELEMENT_SET_NO":"999","SITE":"AFETR","LAUNCH_DATE":"2020-04-22","REF_FRAME":"TEME","SEMIMAJOR_AXIS":"6925.348","MEAN_MOTION_DOT":"-0.00007184","OBJECT_ID":"2020-025AJ","NORAD_CAT_ID":"45563","DECAY_DATE":null,"PERIAPSIS":"546.254","REV_AT_EPOCH":"10484","FILE":"3349821","MEAN_MOTION_DDOT":"0.0000000000000","RA_OF_ASC_NODE":"174.7162","OBJECT_TYPE":"PAYLOAD","ARG_OF_PERICENTER":"77.1183","PERIOD":"95.592","MEAN_ANOMALY":"282.9961","TLE_LINE2":"2 45563  53.0542 174.7162 0001385  77.1183 282.9961 15.06400183104848","BSTAR":"-0.00046388000000","EPHEMERIS_TYPE":"0","RCS_SIZE":"LARGE","CENTER_NAME":"EARTH","MEAN_ELEMENT_THEORY":"SGP4","INCLINATION":"53.0542","OBJECT_NAME":"STARLINK-1355","CLASSIFICATION_TYPE":"U"},{"TLE_LINE1":"1 45564U 20025AK  22066.59161152 -.00002981  00000-0 -18133-3 0  9990","COUNTRY_CODE":"US","GP_ID":"198186703","EPOCH":"2022-03-07T14:11:55.235328","ECCENTRICITY":"0.00013370","APOAPSIS":"548.167","TIME_SYSTEM":"UTC","SITE":"AFETR","ELEMENT_SET_NO":"999","MEAN_MOTION":"15.06391054","REF_FRAME":"TEME","SEMIMAJOR_AXIS":"6925.376","LAUNCH_DATE":"2020-04-22","OBJECT_ID":"2020-025AK","MEAN_MOTION_DOT":"-0.00002981","NORAD_CAT_ID":"45564","DECAY_DATE":null,"REV_AT_EPOCH":"10484","PERIAPSIS":"546.315","FILE":"3349821","MEAN_MOTION_DDOT":"0.0000000000000","RA_OF_ASC_NODE":"174.7145","OBJECT_TYPE":"PAYLOAD","ARG_OF_PERICENTER":"79.0654","MEAN_ANOMALY":"281.0486","PERIOD":"95.593","TLE_LINE2":"2 45564  53.0545 174.7145 0001337  79.0654 281.0486 15.06391054104842","BSTAR":"-0.00018133000000","RCS_SIZE":"LARGE","EPHEMERIS_TYPE":"0","INCLINATION":"53.0545","OBJECT_NAME":"STARLINK-1356","CENTER_NAME":"EARTH","MEAN_ELEMENT_THEORY":"SGP4","CLASSIFICATION_TYPE":"U"},{"OBJECT_ID":"2020-025AL","MEAN_MOTION_DOT":"-0.00002951","REF_FRAME":"TEME","SEMIMAJOR_AXIS":"6925.378","LAUNCH_DATE":"2020-04-22","SITE":"AFETR","MEAN_MOTION":"15.06390276","ELEMENT_SET_NO":"999","REV_AT_EPOCH":"10486","PERIAPSIS":"546.199","DECAY_DATE":null,"NORAD_CAT_ID":"45565","EPOCH":"2022-03-07T17:12:22.074624","ECCENTRICITY":"0.00015080","GP_ID":"198185451","TLE_LINE1":"1 45565U 20025AL  22066.71692216 -.00002951  00000-0 -17934-3 0  9990","COUNTRY_CODE":"US","TIME_SYSTEM":"UTC","APOAPSIS":"548.288","RCS_SIZE":"LARGE","EPHEMERIS_TYPE":"0","BSTAR":"-0.00017934000000","TLE_LINE2":"2 45565  53.0533 174.1575 0001508  65.0453 295.0693 15.06390276104865","CLASSIFICATION_TYPE":"U","OBJECT_NAME":"STARLINK-1357","INCLINATION":"53.0533","MEAN_ELEMENT_THEORY":"SGP4","CENTER_NAME":"EARTH","RA_OF_ASC_NODE":"174.1575","OBJECT_TYPE":"PAYLOAD","MEAN_MOTION_DDOT":"0.0000000000000","FILE":"3349821","MEAN_ANOMALY":"295.0693","PERIOD":"95.593","ARG_OF_PERICENTER":"65.0453"},{"GP_ID":"198186201","TLE_LINE1":"1 45566U 20025AM  22066.66532177 -.00002238  00000-0 -13146-3 0  9993","COUNTRY_CODE":"US","ECCENTRICITY":"0.00014420","EPOCH":"2022-03-07T15:58:03.800928","APOAPSIS":"548.240","TIME_SYSTEM":"UTC","MEAN_MOTION":"15.06391020","ELEMENT_SET_NO":"999","SITE":"AFETR","LAUNCH_DATE":"2020-04-22","SEMIMAJOR_AXIS":"6925.376","REF_FRAME":"TEME","OBJECT_ID":"2020-025AM","MEAN_MOTION_DOT":"-0.00002238","NORAD_CAT_ID":"45566","DECAY_DATE":null,"PERIAPSIS":"546.242","REV_AT_EPOCH":"10485","FILE":"3349821","MEAN_MOTION_DDOT":"0.0000000000000","RA_OF_ASC_NODE":"174.3972","OBJECT_TYPE":"PAYLOAD","ARG_OF_PERICENTER":"58.0208","PERIOD":"95.593","MEAN_ANOMALY":"302.0921","TLE_LINE2":"2 45566  53.0548 174.3972 0001442  58.0208 302.0921 15.06391020104852","BSTAR":"-0.00013146000000","EPHEMERIS_TYPE":"0","RCS_SIZE":"LARGE","MEAN_ELEMENT_THEORY":"SGP4","CENTER_NAME":"EARTH","INCLINATION":"53.0548","OBJECT_NAME":"STARLINK-1358","CLASSIFICATION_TYPE":"U"},{"TLE_LINE2":"2 45567  53.0545 174.3340 0001255  78.0058 282.1071 15.06382065104860","RCS_SIZE":"LARGE","EPHEMERIS_TYPE":"0","BSTAR":"-0.00004375300000","INCLINATION":"53.0545","OBJECT_NAME":"STARLINK-1361","MEAN_ELEMENT_THEORY":"SGP4","CENTER_NAME":"EARTH","CLASSIFICATION_TYPE":"U","FILE":"3349821","OBJECT_TYPE":"PAYLOAD","RA_OF_ASC_NODE":"174.3340","MEAN_MOTION_DDOT":"0.0000000000000","MEAN_ANOMALY":"282.1071","PERIOD":"95.593","ARG_OF_PERICENTER":"78.0058","SEMIMAJOR_AXIS":"6925.404","REF_FRAME":"TEME","LAUNCH_DATE":"2020-04-22","SITE":"AFETR","MEAN_MOTION":"15.06382065","ELEMENT_SET_NO":"999","MEAN_MOTION_DOT":"-0.00000933","OBJECT_ID":"2020-025AN","DECAY_DATE":null,"NORAD_CAT_ID":"45567","REV_AT_EPOCH":"10486","PERIAPSIS":"546.399","COUNTRY_CODE":"US","TLE_LINE1":"1 45567U 20025AN  22066.67640418 -.00000933  00000-0 -43753-4 0  9991","GP_ID":"198186453","EPOCH":"2022-03-07T16:14:01.321152","ECCENTRICITY":"0.00012550","TIME_SYSTEM":"UTC","APOAPSIS":"548.138"},{"NORAD_CAT_ID":"45568","DECAY_DATE":null,"REV_AT_EPOCH":"10485","PERIAPSIS":"546.365","MEAN_MOTION":"15.06391452","ELEMENT_SET_NO":"999","SITE":"AFETR","LAUNCH_DATE":"2020-04-22","SEMIMAJOR_AXIS":"6925.375","REF_FRAME":"TEME","MEAN_MOTION_DOT":"-0.00002091","OBJECT_ID":"2020-025AP","APOAPSIS":"548.114","TIME_SYSTEM":"UTC","TLE_LINE1":"1 45568U 20025AP  22066.66806629 -.00002091  00000-0 -12157-3 0  9999","GP_ID":"198187203","COUNTRY_CODE":"US","ECCENTRICITY":"0.00012630","EPOCH":"2022-03-07T16:02:00.927456","CENTER_NAME":"EARTH","MEAN_ELEMENT_THEORY":"SGP4","OBJECT_NAME":"STARLINK-1363","INCLINATION":"53.0543","CLASSIFICATION_TYPE":"U","TLE_LINE2":"2 45568  53.0543 174.3803 0001263  74.4472 285.6656 15.06391452104858","BSTAR":"-0.00012157000000","EPHEMERIS_TYPE":"0","RCS_SIZE":"LARGE","ARG_OF_PERICENTER":"74.4472","PERIOD":"95.593","MEAN_ANOMALY":"285.6656","FILE":"3349821","MEAN_MOTION_DDOT":"0.0000000000000","OBJECT_TYPE":"PAYLOAD","RA_OF_ASC_NODE":"174.3803"},{"MEAN_MOTION_DOT":"-0.00005221","OBJECT_ID":"2020-025AQ","SITE":"AFETR","ELEMENT_SET_NO":"999","MEAN_MOTION":"15.06398064","REF_FRAME":"TEME","SEMIMAJOR_AXIS":"6925.354","LAUNCH_DATE":"2020-04-22","PERIAPSIS":"546.300","REV_AT_EPOCH":"10484","NORAD_CAT_ID":"45569","DECAY_DATE":null,"EPOCH":"2022-03-07T14:43:44.983776","ECCENTRICITY":"0.00013270","TLE_LINE1":"1 45569U 20025AQ  22066.61371509 -.00005221  00000-0 -33189-3 0  9995","GP_ID":"198185951","COUNTRY_CODE":"US","APOAPSIS":"548.138","TIME_SYSTEM":"UTC","BSTAR":"-0.00033189000000","RCS_SIZE":"LARGE","EPHEMERIS_TYPE":"0","TLE_LINE2":"2 45569  53.0532 174.6212 0001327  65.2733 294.8394 15.06398064104849","CLASSIFICATION_TYPE":"U","INCLINATION":"53.0532","OBJECT_NAME":"STARLINK-1366","CENTER_NAME":"EARTH","MEAN_ELEMENT_THEORY":"SGP4","MEAN_MOTION_DDOT":"0.0000000000000","RA_OF_ASC_NODE":"174.6212","OBJECT_TYPE":"PAYLOAD","FILE":"3349821","ARG_OF_PERICENTER":"65.2733","MEAN_ANOMALY":"294.8394","PERIOD":"95.592"}];
